JILIN-1 GAOFEN 3D04     
1 52389U 22046B   26068.73342222  .00178961  00000+0  11177-2 0  9998
2 52389  97.4899 183.6662 0001527 245.0805 115.0302 15.76354751214874
STARLINK-36726          
1 67925U 26036X   26067.93853814 -.00192425  00000+0 -93903-3 0  9999
2 67925  42.9988 254.1867 0003330 245.4626 114.5898 15.81838832  3558
